STARLINK-3276
1 50189U 21125AK  26092.41963062  .00040106  00000+0  22236-2 0  9991
2 50189  53.2144 141.0376 0001320 228.7969 131.2912 15.13423635240249
